{
  "type": "FeatureCollection",
  "features": [
    {
      "type": "Feature",
      "properties": {
        "norad_id": 37280,
        "name": "COSMOS 2251 DEB",
        "group": "cosmos-2251-debris",
        "lat": 38.340023693375954,
        "lon": -129.00061084561764,
        "alt_km": 767.7779656366201,
        "timestamp": "2025-12-08T19:31:49.204520+00:00",
        "meta_object_name": "COSMOS 2251 DEB",
        "meta_object_id": "1993-036BHU",
        "meta_epoch": "2025-12-07T22:33:59.390208",
        "meta_mean_motion": 14.19261757,
        "meta_eccentricity": 0.01314572,
        "meta_inclination": 74.0315,
        "meta_ra_of_asc_node": 65.6486,
        "meta_arg_of_pericenter": 195.2525,
        "meta_mean_anomaly": 164.4641,
        "meta_ephemeris_type": 0,
        "meta_classification_type": "U",
        "meta_norad_cat_id": 37280,
        "meta_element_set_no": 999,
        "meta_rev_at_epoch": 57255,
        "meta_bstar": 0.0024447431,
        "meta_mean_motion_dot": 5.567e-05,
        "meta_mean_motion_ddot": 0,
        "tle_line1": "1 37280U 93036BHU 25341.94027072  .00005567  00000+0  24447-2 0  9992",
        "tle_line2": "2 37280  74.0315  65.6486 0131457 195.2525 164.4641 14.19261757572550"
      },
      "geometry": {
        "type": "Point",
        "coordinates": [
          -129.00061084561764,
          38.340023693375954
        ]
      }
    },
    {
      "type": "Feature",
      "properties": {
        "norad_id": 37284,
        "name": "COSMOS 2251 DEB",
        "group": "cosmos-2251-debris",
        "lat": -49.418424528368796,
        "lon": 3.2336072489219094,
        "alt_km": 843.1484982000802,
        "timestamp": "2025-12-08T19:31:49.204529+00:00",
        "meta_object_name": "COSMOS 2251 DEB",
        "meta_object_id": "1993-036BHY",
        "meta_epoch": "2025-12-05T19:06:47.225088",
        "meta_mean_motion": 14.12657303,
        "meta_eccentricity": 0.01604408,
        "meta_inclination": 74.0121,
        "meta_ra_of_asc_node": 169.0185,
        "meta_arg_of_pericenter": 322.3384,
        "meta_mean_anomaly": 52.3924,
        "meta_ephemeris_type": 0,
        "meta_classification_type": "U",
        "meta_norad_cat_id": 37284,
        "meta_element_set_no": 999,
        "meta_rev_at_epoch": 59077,
        "meta_bstar": 0.001984473,
        "meta_mean_motion_dot": 4.13e-05,
        "meta_mean_motion_ddot": 0,
        "tle_line1": "1 37284U 93036BHY 25339.79637992  .00004130  00000+0  19845-2 0  9995",
        "tle_line2": "2 37284  74.0121 169.0185 0160440 322.3384  52.3924 14.12657303590776"
      },
      "geometry": {
        "type": "Point",
        "coordinates": [
          3.2336072489219094,
          -49.418424528368796
        ]
      }
    },
    {
      "type": "Feature",
      "properties": {
        "norad_id": 37292,
        "name": "COSMOS 2251 DEB",
        "group": "cosmos-2251-debris",
        "lat": 46.64409015054658,
        "lon": -140.96749909376595,
        "alt_km": 823.1546344597982,
        "timestamp": "2025-12-08T19:31:49.204538+00:00",
        "meta_object_name": "COSMOS 2251 DEB",
        "meta_object_id": "1993-036BJG",
        "meta_epoch": "2025-12-02T14:04:30.366912",
        "meta_mean_motion": 14.03226454,
        "meta_eccentricity": 0.02102512,
        "meta_inclination": 74.129,
        "meta_ra_of_asc_node": 67.3453,
        "meta_arg_of_pericenter": 73.1105,
        "meta_mean_anomaly": 289.2966,
        "meta_ephemeris_type": 0,
        "meta_classification_type": "U",
        "meta_norad_cat_id": 37292,
        "meta_element_set_no": 999,
        "meta_rev_at_epoch": 59706,
        "meta_bstar": 0.0022453288,
        "meta_mean_motion_dot": 4.236e-05,
        "meta_mean_motion_ddot": 0,
        "tle_line1": "1 37292U 93036BJG 25336.58646258  .00004236  00000+0  22453-2 0  9999",
        "tle_line2": "2 37292  74.1290  67.3453 0210251  73.1105 289.2966 14.03226454597064"
      },
      "geometry": {
        "type": "Point",
        "coordinates": [
          -140.96749909376595,
          46.64409015054658
        ]
      }
    },
    {
      "type": "Feature",
      "properties": {
        "norad_id": 37295,
        "name": "COSMOS 2251 DEB",
        "group": "cosmos-2251-debris",
        "lat": -63.91805289464066,
        "lon": 145.05794485214503,
        "alt_km": 706.6666115875869,
        "timestamp": "2025-12-08T19:31:49.204547+00:00",
        "meta_object_name": "COSMOS 2251 DEB",
        "meta_object_id": "1993-036BJK",
        "meta_epoch": "2025-12-08T06:55:47.796960",
        "meta_mean_motion": 14.65195432,
        "meta_eccentricity": 0.0043741,
        "meta_inclination": 74.0075,
        "meta_ra_of_asc_node": 290.2038,
        "meta_arg_of_pericenter": 110.7992,
        "meta_mean_anomaly": 249.7871,
        "meta_ephemeris_type": 0,
        "meta_classification_type": "U",
        "meta_norad_cat_id": 37295,
        "meta_element_set_no": 999,
        "meta_rev_at_epoch": 82239,
        "meta_bstar": 0.00091244474,
        "meta_mean_motion_dot": 4.952e-05,
        "meta_mean_motion_ddot": 0,
        "tle_line1": "1 37295U 93036BJK 25342.28874765  .00004952  00000+0  91244-3 0  9992",
        "tle_line2": "2 37295  74.0075 290.2038 0043741 110.7992 249.7871 14.65195432822395"
      },
      "geometry": {
        "type": "Point",
        "coordinates": [
          145.05794485214503,
          -63.91805289464066
        ]
      }
    },
    {
      "type": "Feature",
      "properties": {
        "norad_id": 37305,
        "name": "COSMOS 2251 DEB",
        "group": "cosmos-2251-debris",
        "lat": 71.64612337167927,
        "lon": -1.465810133165893,
        "alt_km": 800.2286337097885,
        "timestamp": "2025-12-08T19:31:49.204556+00:00",
        "meta_object_name": "COSMOS 2251 DEB",
        "meta_object_id": "1993-036BJV",
        "meta_epoch": "2025-12-01T04:54:57.845088",
        "meta_mean_motion": 14.36058989,
        "meta_eccentricity": 0.0050534,
        "meta_inclination": 73.8694,
        "meta_ra_of_asc_node": 311.9126,
        "meta_arg_of_pericenter": 273.9871,
        "meta_mean_anomaly": 85.5504,
        "meta_ephemeris_type": 0,
        "meta_classification_type": "U",
        "meta_norad_cat_id": 37305,
        "meta_element_set_no": 999,
        "meta_rev_at_epoch": 66701,
        "meta_bstar": 0.00088749,
        "meta_mean_motion_dot": 2.593e-05,
        "meta_mean_motion_ddot": 0,
        "tle_line1": "1 37305U 93036BJV 25335.20483617  .00002593  00000+0  88749-3 0  9995",
        "tle_line2": "2 37305  73.8694 311.9126 0050534 273.9871  85.5504 14.36058989667014"
      },
      "geometry": {
        "type": "Point",
        "coordinates": [
          -1.465810133165893,
          71.64612337167927
        ]
      }
    },
    {
      "type": "Feature",
      "properties": {
        "norad_id": 37312,
        "name": "COSMOS 2251 DEB",
        "group": "cosmos-2251-debris",
        "lat": -16.439700531334005,
        "lon": -153.33747097627878,
        "alt_km": 731.4073738822372,
        "timestamp": "2025-12-08T19:31:49.204566+00:00",
        "meta_object_name": "COSMOS 2251 DEB",
        "meta_object_id": "1993-036BKC",
        "meta_epoch": "2025-12-07T08:44:33.829152",
        "meta_mean_motion": 14.46101294,
        "meta_eccentricity": 0.00182642,
        "meta_inclination": 74.0312,
        "meta_ra_of_asc_node": 214.2138,
        "meta_arg_of_pericenter": 317.9243,
        "meta_mean_anomaly": 42.0511,
        "meta_ephemeris_type": 0,
        "meta_classification_type": "U",
        "meta_norad_cat_id": 37312,
        "meta_element_set_no": 999,
        "meta_rev_at_epoch": 86086,
        "meta_bstar": 0.00080794377,
        "meta_mean_motion_dot": 2.864e-05,
        "meta_mean_motion_ddot": 0,
        "tle_line1": "1 37312U 93036BKC 25341.36428043  .00002864  00000+0  80794-3 0  9992",
        "tle_line2": "2 37312  74.0312 214.2138 0018264 317.9243  42.0511 14.46101294860869"
      },
      "geometry": {
        "type": "Point",
        "coordinates": [
          -153.33747097627878,
          -16.439700531334005
        ]
      }
    },
    {
      "type": "Feature",
      "properties": {
        "norad_id": 37316,
        "name": "COSMOS 2251 DEB",
        "group": "cosmos-2251-debris",
        "lat": -38.72302467933785,
        "lon": -137.72741142990787,
        "alt_km": 601.3458505128501,
        "timestamp": "2025-12-08T19:31:49.204575+00:00",
        "meta_object_name": "COSMOS 2251 DEB",
        "meta_object_id": "1993-036BKG",
        "meta_epoch": "2025-12-07T13:37:32.618496",
        "meta_mean_motion": 14.9417332,
        "meta_eccentricity": 0.00293383,
        "meta_inclination": 74.02,
        "meta_ra_of_asc_node": 31.5001,
        "meta_arg_of_pericenter": 102.0227,
        "meta_mean_anomaly": 258.4247,
        "meta_ephemeris_type": 0,
        "meta_classification_type": "U",
        "meta_norad_cat_id": 37316,
        "meta_element_set_no": 999,
        "meta_rev_at_epoch": 86066,
        "meta_bstar": 0.0033956107,
        "meta_mean_motion_dot": 0.0003683,
        "meta_mean_motion_ddot": 0,
        "tle_line1": "1 37316U 93036BKG 25341.56773864  .00036830  00000+0  33956-2 0  9999",
        "tle_line2": "2 37316  74.0200  31.5001 0029338 102.0227 258.4247 14.94173320860666"
      },
      "geometry": {
        "type": "Point",
        "coordinates": [
          -137.72741142990787,
          -38.72302467933785
        ]
      }
    }
  ]
}